CCSDS_OMM_VERS = 2.0
CREATION_DATE  = 
ORIGINATOR     = 

OBJECT_NAME    = STARLINK-35902
OBJECT_ID      = 2025-271K
CENTER_NAME    = EARTH
REF_FRAME      = TEME
TIME_SYSTEM    = UTC
MEAN_ELEMENT_THEORY = SGP/SGP4

EPOCH          = 2025-12-29T10:39:34.116768
MEAN_MOTION    = 15.39641156
ECCENTRICITY   = .00010132
INCLINATION    = 53.1593
RA_OF_ASC_NODE = 108.2194
ARG_OF_PERICENTER = 109.5009
MEAN_ANOMALY   = 250.6105

EPHEMERIS_TYPE = 0
CLASSIFICATION_TYPE = U
NORAD_CAT_ID   = 66626
ELEMENT_SET_NO = 999
REV_AT_EPOCH   = 678
BSTAR          = .17438544E-2
MEAN_MOTION_DOT = .70045E-3
MEAN_MOTION_DDOT = 0

CCSDS_OMM_VERS = 2.0
CREATION_DATE  = 
ORIGINATOR     = 

OBJECT_NAME    = STARLINK-35904
OBJECT_ID      = 2025-271L
CENTER_NAME    = EARTH
REF_FRAME      = TEME
TIME_SYSTEM    = UTC
MEAN_ELEMENT_THEORY = SGP/SGP4

EPOCH          = 2025-12-29T13:33:09.509760
MEAN_MOTION    = 15.39706123
ECCENTRICITY   = .0002397
INCLINATION    = 53.1605
RA_OF_ASC_NODE = 107.5488
ARG_OF_PERICENTER = 26.4179
MEAN_ANOMALY   = 333.6948

EPHEMERIS_TYPE = 0
CLASSIFICATION_TYPE = U
NORAD_CAT_ID   = 66627
ELEMENT_SET_NO = 999
REV_AT_EPOCH   = 676
BSTAR          = .20669E-2
MEAN_MOTION_DOT = .83425E-3
MEAN_MOTION_DDOT = 0

CCSDS_OMM_VERS = 2.0
CREATION_DATE  = 
ORIGINATOR     = 

OBJECT_NAME    = STARLINK-35862
OBJECT_ID      = 2025-271M
CENTER_NAME    = EARTH
REF_FRAME      = TEME
TIME_SYSTEM    = UTC
MEAN_ELEMENT_THEORY = SGP/SGP4

EPOCH          = 2025-12-29T17:39:40.014720
MEAN_MOTION    = 15.39640484
ECCENTRICITY   = .0001239
INCLINATION    = 53.1603
RA_OF_ASC_NODE = 106.4831
ARG_OF_PERICENTER = 137.9257
MEAN_ANOMALY   = 222.1843

EPHEMERIS_TYPE = 0
CLASSIFICATION_TYPE = U
NORAD_CAT_ID   = 66628
ELEMENT_SET_NO = 999
REV_AT_EPOCH   = 683
BSTAR          = .14683E-2
MEAN_MOTION_DOT = .58825E-3
MEAN_MOTION_DDOT = 0

CCSDS_OMM_VERS = 2.0
CREATION_DATE  = 
ORIGINATOR     = 

OBJECT_NAME    = STARLINK-35956
OBJECT_ID      = 2025-271N
CENTER_NAME    = EARTH
REF_FRAME      = TEME
TIME_SYSTEM    = UTC
MEAN_ELEMENT_THEORY = SGP/SGP4

EPOCH          = 2025-12-29T13:56:03.243840
MEAN_MOTION    = 15.60447456
ECCENTRICITY   = .0012119
INCLINATION    = 53.1701
RA_OF_ASC_NODE = 106.2407
ARG_OF_PERICENTER = 28.1412
MEAN_ANOMALY   = 332.0255

EPHEMERIS_TYPE = 0
CLASSIFICATION_TYPE = U
NORAD_CAT_ID   = 66629
ELEMENT_SET_NO = 999
REV_AT_EPOCH   = 168
BSTAR          = .85983E-2
MEAN_MOTION_DOT = .783109E-2
MEAN_MOTION_DDOT = 0

CCSDS_OMM_VERS = 2.0
CREATION_DATE  = 
ORIGINATOR     = 

OBJECT_NAME    = STARLINK-35949
OBJECT_ID      = 2025-271P
CENTER_NAME    = EARTH
REF_FRAME      = TEME
TIME_SYSTEM    = UTC
MEAN_ELEMENT_THEORY = SGP/SGP4

EPOCH          = 2025-12-29T14:26:30.800832
MEAN_MOTION    = 15.39591266
ECCENTRICITY   = .0002349
INCLINATION    = 53.1602
RA_OF_ASC_NODE = 107.0672
ARG_OF_PERICENTER = 42.9394
MEAN_ANOMALY   = 317.1794

EPHEMERIS_TYPE = 0
CLASSIFICATION_TYPE = U
NORAD_CAT_ID   = 66630
ELEMENT_SET_NO = 999
REV_AT_EPOCH   = 681
BSTAR          = .14646E-2
MEAN_MOTION_DOT = .58579E-3
MEAN_MOTION_DDOT = 0

CCSDS_OMM_VERS = 2.0
CREATION_DATE  = 
ORIGINATOR     = 

OBJECT_NAME    = STARLINK-35965
OBJECT_ID      = 2025-271Q
CENTER_NAME    = EARTH
REF_FRAME      = TEME
TIME_SYSTEM    = UTC
MEAN_ELEMENT_THEORY = SGP/SGP4

EPOCH          = 2025-12-29T11:19:04.354752
MEAN_MOTION    = 15.39669393
ECCENTRICITY   = .00009677
INCLINATION    = 53.1614
RA_OF_ASC_NODE = 107.6748
ARG_OF_PERICENTER = 94.6324
MEAN_ANOMALY   = 265.4792

EPHEMERIS_TYPE = 0
CLASSIFICATION_TYPE = U
NORAD_CAT_ID   = 66631
ELEMENT_SET_NO = 999
REV_AT_EPOCH   = 679
BSTAR          = .14727849E-2
MEAN_MOTION_DOT = .59064E-3
MEAN_MOTION_DDOT = 0

CCSDS_OMM_VERS = 2.0
CREATION_DATE  = 
ORIGINATOR     = 

OBJECT_NAME    = STARLINK-35973
OBJECT_ID      = 2025-271R
CENTER_NAME    = EARTH
REF_FRAME      = TEME
TIME_SYSTEM    = UTC
MEAN_ELEMENT_THEORY = SGP/SGP4

EPOCH          = 2025-12-29T12:26:25.029600
MEAN_MOTION    = 15.39583927
ECCENTRICITY   = .00012985
INCLINATION    = 53.1599
RA_OF_ASC_NODE = 107.9703
ARG_OF_PERICENTER = 91.2417
MEAN_ANOMALY   = 268.8737

EPHEMERIS_TYPE = 0
CLASSIFICATION_TYPE = U
NORAD_CAT_ID   = 66632
ELEMENT_SET_NO = 999
REV_AT_EPOCH   = 675
BSTAR          = .16976704E-2
MEAN_MOTION_DOT = .68033E-3
MEAN_MOTION_DDOT = 0

CCSDS_OMM_VERS = 2.0
CREATION_DATE  = 
ORIGINATOR     = 

OBJECT_NAME    = STARLINK-35948
OBJECT_ID      = 2025-271S
CENTER_NAME    = EARTH
REF_FRAME      = TEME
TIME_SYSTEM    = UTC
MEAN_ELEMENT_THEORY = SGP/SGP4

EPOCH          = 2025-12-29T12:25:56.536608
MEAN_MOTION    = 15.39614355
ECCENTRICITY   = .00014612
INCLINATION    = 53.1595
RA_OF_ASC_NODE = 107.9662
ARG_OF_PERICENTER = 127.3719
MEAN_ANOMALY   = 232.7419

EPHEMERIS_TYPE = 0
CLASSIFICATION_TYPE = U
NORAD_CAT_ID   = 66633
ELEMENT_SET_NO = 999
REV_AT_EPOCH   = 679
BSTAR          = .16010847E-2
MEAN_MOTION_DOT = .64172E-3
MEAN_MOTION_DDOT = 0

CCSDS_OMM_VERS = 2.0
CREATION_DATE  = 
ORIGINATOR     = 

OBJECT_NAME    = STARLINK-35967
OBJECT_ID      = 2025-271T
CENTER_NAME    = EARTH
REF_FRAME      = TEME
TIME_SYSTEM    = UTC
MEAN_ELEMENT_THEORY = SGP/SGP4

EPOCH          = 2025-12-29T13:52:43.932864
MEAN_MOTION    = 15.39605776
ECCENTRICITY   = .0001144
INCLINATION    = 53.1610
RA_OF_ASC_NODE = 107.6322
ARG_OF_PERICENTER = 82.7333
MEAN_ANOMALY   = 277.3802

EPHEMERIS_TYPE = 0
CLASSIFICATION_TYPE = U
NORAD_CAT_ID   = 66634
ELEMENT_SET_NO = 999
REV_AT_EPOCH   = 676
BSTAR          = .26274E-2
MEAN_MOTION_DOT = .106118E-2
MEAN_MOTION_DDOT = 0

CCSDS_OMM_VERS = 2.0
CREATION_DATE  = 
ORIGINATOR     = 

OBJECT_NAME    = STARLINK-35955
OBJECT_ID      = 2025-271U
CENTER_NAME    = EARTH
REF_FRAME      = TEME
TIME_SYSTEM    = UTC
MEAN_ELEMENT_THEORY = SGP/SGP4

EPOCH          = 2025-12-29T12:05:52.733184
MEAN_MOTION    = 15.39598005
ECCENTRICITY   = .0001532
INCLINATION    = 53.1597
RA_OF_ASC_NODE = 107.8793
ARG_OF_PERICENTER = 116.5922
MEAN_ANOMALY   = 243.5240

EPHEMERIS_TYPE = 0
CLASSIFICATION_TYPE = U
NORAD_CAT_ID   = 66635
ELEMENT_SET_NO = 999
REV_AT_EPOCH   = 679
BSTAR          = .17341E-2
MEAN_MOTION_DOT = .69547E-3
MEAN_MOTION_DDOT = 0

CCSDS_OMM_VERS = 2.0
CREATION_DATE  = 
ORIGINATOR     = 

OBJECT_NAME    = STARLINK-35968
OBJECT_ID      = 2025-271V
CENTER_NAME    = EARTH
REF_FRAME      = TEME
TIME_SYSTEM    = UTC
MEAN_ELEMENT_THEORY = SGP/SGP4

EPOCH          = 2025-12-29T10:39:05.488128
MEAN_MOTION    = 15.39639435
ECCENTRICITY   = .00004648
INCLINATION    = 53.1601
RA_OF_ASC_NODE = 108.2133
ARG_OF_PERICENTER = 128.7821
MEAN_ANOMALY   = 231.3226

EPHEMERIS_TYPE = 0
CLASSIFICATION_TYPE = U
NORAD_CAT_ID   = 66636
ELEMENT_SET_NO = 999
REV_AT_EPOCH   = 678
BSTAR          = .87139539E-3
MEAN_MOTION_DOT = .34636E-3
MEAN_MOTION_DDOT = 0

CCSDS_OMM_VERS = 2.0
CREATION_DATE  = 
ORIGINATOR     = 

OBJECT_NAME    = STARLINK-35953
OBJECT_ID      = 2025-271W
CENTER_NAME    = EARTH
REF_FRAME      = TEME
TIME_SYSTEM    = UTC
MEAN_ELEMENT_THEORY = SGP/SGP4

EPOCH          = 2025-12-29T11:59:11.694624
MEAN_MOTION    = 15.39683730
ECCENTRICITY   = .00011177
INCLINATION    = 53.1613
RA_OF_ASC_NODE = 107.8483
ARG_OF_PERICENTER = 105.7353
MEAN_ANOMALY   = 254.3775

EPHEMERIS_TYPE = 0
CLASSIFICATION_TYPE = U
NORAD_CAT_ID   = 66637
ELEMENT_SET_NO = 999
REV_AT_EPOCH   = 679
BSTAR          = .20814864E-2
MEAN_MOTION_DOT = .83956E-3
MEAN_MOTION_DDOT = 0

