STARLINK-35902          
1 66626U 25271K   25363.44414487  .00070045  00000+0  17439-2 0  9999
2 66626  53.1593 108.2194 0001013 109.5009 250.6105 15.39641156  6789
STARLINK-35904          
1 66627U 25271L   25363.56469340  .00083425  00000+0  20669-2 0  9996
2 66627  53.1605 107.5488 0002397  26.4179 333.6948 15.39706123  6764
STARLINK-35862          
1 66628U 25271M   25363.73587980  .00058825  00000+0  14683-2 0  9992
2 66628  53.1603 106.4831 0001239 137.9257 222.1843 15.39640484  6833
STARLINK-35956          
1 66629U 25271N   25363.58059310  .00783109  00000+0  85983-2 0  9998
2 66629  53.1701 106.2407 0012119  28.1412 332.0255 15.60447456  1687
STARLINK-35949          
1 66630U 25271P   25363.60174538  .00058579  00000+0  14646-2 0  9997
2 66630  53.1602 107.0672 0002349  42.9394 317.1794 15.39591266  6816
STARLINK-35965          
1 66631U 25271Q   25363.47157818  .00059064  00000+0  14728-2 0  9996
2 66631  53.1614 107.6748 0000967  94.6324 265.4792 15.39669393  6798
STARLINK-35973          
1 66632U 25271R   25363.51834525  .00068033  00000+0  16977-2 0  9993
2 66632  53.1599 107.9703 0001298  91.2417 268.8737 15.39583927  6759
STARLINK-35948          
1 66633U 25271S   25363.51801547  .00064172  00000+0  16011-2 0  9991
2 66633  53.1595 107.9662 0001461 127.3719 232.7419 15.39614355  6799
STARLINK-35967          
1 66634U 25271T   25363.57828626  .00106118  00000+0  26274-2 0  9994
2 66634  53.1610 107.6322 0001144  82.7333 277.3802 15.39605776  6767
STARLINK-35955          
1 66635U 25271U   25363.50408256  .00069547  00000+0  17341-2 0  9990
2 66635  53.1597 107.8793 0001532 116.5922 243.5240 15.39598005  6797
STARLINK-35968          
1 66636U 25271V   25363.44381352  .00034636  00000+0  87140-3 0  9997
2 66636  53.1601 108.2133 0000464 128.7821 231.3226 15.39639435  6784
STARLINK-35953          
1 66637U 25271W   25363.49944091  .00083956  00000+0  20815-2 0  9992
2 66637  53.1613 107.8483 0001117 105.7353 254.3775 15.39683730  6794
